{"type": "FeatureCollection", "features": [ {"type": "Feature", "properties": {"norad_id": 66919, "name": "HULIANWANG DIGUI-109", "group": "last-30-days", "lat": 21.806267490530477, "lon": 101.91301480743682, "alt_km": 876.1070365319574, "timestamp": "2025-12-21T07:34:33.303177+00:00", "meta": {"OBJECT_NAME": "HULIANWANG DIGUI-109", "OBJECT_ID": "2025-285E", "EPOCH": "2025-12-20T22:53:43.561824", "MEAN_MOTION": 14.03726132, "ECCENTRICITY": 0.00078831, "INCLINATION": 50.0072, "RA_OF_ASC_NODE": 83.7622, "ARG_OF_PERICENTER": 319.8198, "MEAN_ANOMALY": 40.2123, "EPHEMERIS_TYPE": 0, "CLASSIFICATION_TYPE": "U", "NORAD_CAT_ID": 66919, "ELEMENT_SET_NO": 999, "REV_AT_EPOCH": 206, "BSTAR": 0.00011094098, "MEAN_MOTION_DOT": 2.4e-07, "MEAN_MOTION_DDOT": 0}, "tle": {"line1": "1 66919U 25285E   25354.95397641  .00000024  00000+0  11094-3 0  9999", "line2": "2 66919  50.0072  83.7622 0007883 319.8198  40.2123 14.03726132  2069"}}, "geometry": {"type": "Point", "coordinates": [101.91301480743682, 21.806267490530477]}}, {"type": "Feature", "properties": {"norad_id": 66920, "name": "HULIANWANG DIGUI-110", "group": "last-30-days", "lat": 24.845354873607914, "lon": 105.15627620287606, "alt_km": 876.8763807969999, "timestamp": "2025-12-21T07:34:33.303186+00:00", "meta": {"OBJECT_NAME": "HULIANWANG DIGUI-110", "OBJECT_ID": "2025-285F", "EPOCH": "2025-12-20T22:52:29.804736", "MEAN_MOTION": 14.03682335, "ECCENTRICITY": 0.00055872, "INCLINATION": 50.0105, "RA_OF_ASC_NODE": 83.7639, "ARG_OF_PERICENTER": 317.0043, "MEAN_ANOMALY": 43.0424, "EPHEMERIS_TYPE": 0, "CLASSIFICATION_TYPE": "U", "NORAD_CAT_ID": 66920, "ELEMENT_SET_NO": 999, "REV_AT_EPOCH": 206, "BSTAR": 9.0947739e-05, "MEAN_MOTION_DOT": -8e-08, "MEAN_MOTION_DDOT": 0}, "tle": {"line1": "1 66920U 25285F   25354.95312274 -.00000008  00000+0  90948-4 0  9999", "line2": "2 66920  50.0105  83.7639 0005587 317.0043  43.0424 14.03682335  2065"}}, "geometry": {"type": "Point", "coordinates": [105.15627620287606, 24.845354873607914]}}, {"type": "Feature", "properties": {"norad_id": 66921, "name": "HULIANWANG DIGUI-111", "group": "last-30-days", "lat": 27.906702970560595, "lon": 108.67344140981763, "alt_km": 876.4133624763281, "timestamp": "2025-12-21T07:34:33.303196+00:00", "meta": {"OBJECT_NAME": "HULIANWANG DIGUI-111", "OBJECT_ID": "2025-285G", "EPOCH": "2025-12-20T22:51:13.764096", "MEAN_MOTION": 14.03631969, "ECCENTRICITY": 0.00066656, "INCLINATION": 50.012, "RA_OF_ASC_NODE": 83.7623, "ARG_OF_PERICENTER": 320.7593, "MEAN_ANOMALY": 39.2828, "EPHEMERIS_TYPE": 0, "CLASSIFICATION_TYPE": "U", "NORAD_CAT_ID": 66921, "ELEMENT_SET_NO": 999, "REV_AT_EPOCH": 206, "BSTAR": 9.8757031e-05, "MEAN_MOTION_DOT": 5e-08, "MEAN_MOTION_DDOT": 0}, "tle": {"line1": "1 66921U 25285G   25354.95224264  .00000005  00000+0  98757-4 0  9993", "line2": "2 66921  50.0120  83.7623 0006665 320.7593  39.2828 14.03631969  2067"}}, "geometry": {"type": "Point", "coordinates": [108.67344140981763, 27.906702970560595]}}, {"type": "Feature", "properties": {"norad_id": 66922, "name": "HULIANWANG DIGUI-112", "group": "last-30-days", "lat": 31.404944575379627, "lon": 113.0922734284148, "alt_km": 875.3564349086992, "timestamp": "2025-12-21T07:34:33.303206+00:00", "meta": {"OBJECT_NAME": "HULIANWANG DIGUI-112", "OBJECT_ID": "2025-285H", "EPOCH": "2025-12-20T22:49:45.757056", "MEAN_MOTION": 14.03661871, "ECCENTRICITY": 0.00064932, "INCLINATION": 50.0093, "RA_OF_ASC_NODE": 83.75, "ARG_OF_PERICENTER": 331.409, "MEAN_ANOMALY": 28.6458, "EPHEMERIS_TYPE": 0, "CLASSIFICATION_TYPE": "U", "NORAD_CAT_ID": 66922, "ELEMENT_SET_NO": 999, "REV_AT_EPOCH": 206, "BSTAR": 9.9773243e-05, "MEAN_MOTION_DOT": 6e-08, "MEAN_MOTION_DDOT": 0}, "tle": {"line1": "1 66922U 25285H   25354.95122404  .00000006  00000+0  99773-4 0  9997", "line2": "2 66922  50.0093  83.7500 0006493 331.4090  28.6458 14.03661871  2067"}}, "geometry": {"type": "Point", "coordinates": [113.0922734284148, 31.404944575379627]}}, {"type": "Feature", "properties": {"norad_id": 66923, "name": "HULIANWANG DIGUI-113", "group": "last-30-days", "lat": 35.07624548277702, "lon": 118.36993167189115, "alt_km": 875.6864993964991, "timestamp": "2025-12-21T07:34:33.303217+00:00", "meta": {"OBJECT_NAME": "HULIANWANG DIGUI-113", "OBJECT_ID": "2025-285J", "EPOCH": "2025-12-20T22:48:08.384256", "MEAN_MOTION": 14.03699543, "ECCENTRICITY": 0.00051003, "INCLINATION": 50.0093, "RA_OF_ASC_NODE": 83.7455, "ARG_OF_PERICENTER": 326.0145, "MEAN_ANOMALY": 34.0433, "EPHEMERIS_TYPE": 0, "CLASSIFICATION_TYPE": "U", "NORAD_CAT_ID": 66923, "ELEMENT_SET_NO": 999, "REV_AT_EPOCH": 206, "BSTAR": -5.587564e-06, "MEAN_MOTION_DOT": -1.6e-06, "MEAN_MOTION_DDOT": 0}, "tle": {"line1": "1 66923U 25285J   25354.95009704 -.00000160  00000+0 -55876-5 0  9995", "line2": "2 66923  50.0093  83.7455 0005100 326.0145  34.0433 14.03699543  2063"}}, "geometry": {"type": "Point", "coordinates": [118.36993167189115, 35.07624548277702]}}, {"type": "Feature", "properties": {"norad_id": 66924, "name": "CZ-8A R/B", "group": "last-30-days", "lat": -29.312739664255016, "lon": 51.52956001113504, "alt_km": 878.8425730791841, "timestamp": "2025-12-21T07:34:33.303226+00:00", "meta": {"OBJECT_NAME": "CZ-8A R/B", "OBJECT_ID": "2025-285K", "EPOCH": "2025-12-20T14:59:57.859008", "MEAN_MOTION": 14.30504628, "ECCENTRICITY": 0.011927, "INCLINATION": 50.0078, "RA_OF_ASC_NODE": 82.5892, "ARG_OF_PERICENTER": 134.5434, "MEAN_ANOMALY": 226.5297, "EPHEMERIS_TYPE": 0, "CLASSIFICATION_TYPE": "U", "NORAD_CAT_ID": 66924, "ELEMENT_SET_NO": 999, "REV_AT_EPOCH": 205, "BSTAR": 4.574e-05, "MEAN_MOTION_DOT": -3.7e-07, "MEAN_MOTION_DDOT": 0}, "tle": {"line1": "1 66924U 25285K   25354.62497522 -.00000037  00000+0  45740-4 0  9999", "line2": "2 66924  50.0078  82.5892 0119270 134.5434 226.5297 14.30504628  2050"}}, "geometry": {"type": "Point", "coordinates": [51.52956001113504, -29.312739664255016]}}, {"type": "Feature", "properties": {"norad_id": 66925, "name": "STARLINK-35945", "group": "last-30-days", "lat": 14.814992548183689, "lon": 175.9868811228285, "alt_km": 343.40534786094304, "timestamp": "2025-12-21T07:34:33.303235+00:00", "meta": {"OBJECT_NAME": "STARLINK-35945", "OBJECT_ID": "2025-286A", "EPOCH": "2025-12-20T22:00:01.999584", "MEAN_MOTION": 15.75976398, "ECCENTRICITY": 5.155e-05, "INCLINATION": 53.1574, "RA_OF_ASC_NODE": 9.4097, "ARG_OF_PERICENTER": 95.3022, "MEAN_ANOMALY": 321.8143, "EPHEMERIS_TYPE": 0, "CLASSIFICATION_TYPE": "U", "NORAD_CAT_ID": 66925, "ELEMENT_SET_NO": 999, "REV_AT_EPOCH": 330, "BSTAR": -0.0084391619, "MEAN_MOTION_DOT": -0.01186734, "MEAN_MOTION_DDOT": 0}, "tle": {"line1": "1 66925U 25286A   25354.91668981 -.01186734  00000+0 -84392-2 0  9997", "line2": "2 66925  53.1574   9.4097 0000515  95.3022 321.8143 15.75976398  3304"}}, "geometry": {"type": "Point", "coordinates": [175.9868811228285, 14.814992548183689]}}, {"type": "Feature", "properties": {"norad_id": 66926, "name": "STARLINK-35942", "group": "last-30-days", "lat": 11.712299463355954, "lon": 178.47414017477817, "alt_km": 344.30967370594044, "timestamp": "2025-12-21T07:34:33.303244+00:00", "meta": {"OBJECT_NAME": "STARLINK-35942", "OBJECT_ID": "2025-286B", "EPOCH": "2025-12-20T22:00:01.999584", "MEAN_MOTION": 15.7586802, "ECCENTRICITY": 6.577e-05, "INCLINATION": 53.1575, "RA_OF_ASC_NODE": 9.4006, "ARG_OF_PERICENTER": 93.2755, "MEAN_ANOMALY": 327.9607, "EPHEMERIS_TYPE": 0, "CLASSIFICATION_TYPE": "U", "NORAD_CAT_ID": 66926, "ELEMENT_SET_NO": 999, "REV_AT_EPOCH": 330, "BSTAR": -0.0087967078, "MEAN_MOTION_DOT": -0.0122598, "MEAN_MOTION_DDOT": 0}, "tle": {"line1": "1 66926U 25286B   25354.91668981 -.01225980  00000+0 -87967-2 0  9996", "line2": "2 66926  53.1575   9.4006 0000657  93.2755 327.9607 15.75868020  3307"}}, "geometry": {"type": "Point", "coordinates": [178.47414017477817, 11.712299463355954]}}, {"type": "Feature", "properties": {"norad_id": 66927, "name": "STARLINK-35943", "group": "last-30-days", "lat": 10.1258132213809, "lon": 179.71720106647865, "alt_km": 344.39935831427465, "timestamp": "2025-12-21T07:34:33.303253+00:00", "meta": {"OBJECT_NAME": "STARLINK-35943", "OBJECT_ID": "2025-286C", "EPOCH": "2025-12-20T22:00:01.999584", "MEAN_MOTION": 15.75820498, "ECCENTRICITY": 6.555e-05, "INCLINATION": 53.1573, "RA_OF_ASC_NODE": 9.3967, "ARG_OF_PERICENTER": 93.3631, "MEAN_ANOMALY": 329.866, "EPHEMERIS_TYPE": 0, "CLASSIFICATION_TYPE": "U", "NORAD_CAT_ID": 66927, "ELEMENT_SET_NO": 999, "REV_AT_EPOCH": 330, "BSTAR": -0.0079191773, "MEAN_MOTION_DOT": -0.01114483, "MEAN_MOTION_DDOT": 0}, "tle": {"line1": "1 66927U 25286C   25354.91668981 -.01114483  00000+0 -79192-2 0  9993", "line2": "2 66927  53.1573   9.3967 0000655  93.3631 329.8660 15.75820498  3300"}}, "geometry": {"type": "Point", "coordinates": [179.71720106647865, 10.1258132213809]}}, {"type": "Feature", "properties": {"norad_id": 66928, "name": "STARLINK-35944", "group": "last-30-days", "lat": 13.25087507872635, "lon": 177.25074062100617, "alt_km": 343.9471215096082, "timestamp": "2025-12-21T07:34:33.303262+00:00", "meta": {"OBJECT_NAME": "STARLINK-35944", "OBJECT_ID": "2025-286D", "EPOCH": "2025-12-20T22:00:01.999584", "MEAN_MOTION": 15.75901548, "ECCENTRICITY": 5.103e-05, "INCLINATION": 53.1573, "RA_OF_ASC_NODE": 9.4047, "ARG_OF_PERICENTER": 93.4753, "MEAN_ANOMALY": 325.7524, "EPHEMERIS_TYPE": 0, "CLASSIFICATION_TYPE": "U", "NORAD_CAT_ID": 66928, "ELEMENT_SET_NO": 999, "REV_AT_EPOCH": 330, "BSTAR": -0.0086355237, "MEAN_MOTION_DOT": -0.01207614, "MEAN_MOTION_DDOT": 0}, "tle": {"line1": "1 66928U 25286D   25354.91668981 -.01207614  00000+0 -86355-2 0  9992", "line2": "2 66928  53.1573   9.4047 0000510  93.4753 325.7524 15.75901548  3307"}}, "geometry": {"type": "Point", "coordinates": [177.25074062100617, 13.25087507872635]}}]}